GAOFEN-11 01            
1 43585U 18063A   26179.62464766  .00019596  00000+0  28689-3 0  9994
2 43585  97.1294 246.4731 0002105 298.9502  61.1541 15.55618806442125
ICESAT-2                
1 43613U 18070A   26179.54828054  .00008640  00000+0  31409-3 0  9991
2 43613  92.0088 294.0482 0006212  93.7202 266.4758 15.28223658434190
HYSIS                   
1 43719U 18096A   26179.64790488  .00001036  00000+0  14853-3 0  9992
2 43719  97.9841 246.3061 0001850  90.2586 269.8837 14.78639593409113
KAZSTSAT                
1 43783U 18099AB  26179.63896219  .00001912  00000+0  15857-3 0  9992
2 43783  97.4292 211.0482 0008512  38.0581 322.1243 14.99905504413022
SAUDISAT 5A             
1 43831U 18102A   26179.62434362  .00005092  00000+0  18786-3 0  9994
2 43831  97.3067 240.9850 0011283  94.5264 265.7265 15.28162978417426
SAUDISAT 5B             
1 43833U 18102C   26179.64128774  .00004970  00000+0  18199-3 0  9997
2 43833  97.3176 244.0921 0012009  96.1621 264.0987 15.28413745417542
GAOFEN-10R              
1 44622U 19066A   26179.62371676  .00001069  00000+0  13819-3 0  9993
2 44622  98.0502 133.2863 0007176  95.5925 264.6106 14.83023627364077
CARTOSAT-3              
1 44804U 19081A   26179.61753672  .00005691  00000+0  27285-3 0  9998
2 44804  97.4307 241.3006 0013415 111.6215 248.6450 15.19220799365209
GAOFEN-12 01            
1 44819U 19082A   26179.63721705  .00000375  00000+0  55637-4 0  9996
2 44819  97.8101 185.7144 0001844  58.2392 301.9000 14.80467349355787
CSG-1                   
1 44873U 19092A   26179.52812017  .00000388  00000+0  55318-4 0  9992
2 44873  97.8889   2.9664 0001459  90.5065 269.6315 14.82162364353154
NEMO-HD                 
1 46277U 20061F   26179.66060568  .00009901  00000+0  21311-3 0  9996
2 46277  97.1920 241.4985 0001712  74.5740 285.5698 15.44820059323758
SENTINEL-6A             
1 46984U 20086A   26179.56264602 -.00000079  00000+0 -78789-4 0  9993
2 46984  66.0410 111.4260 0007842 270.0202  89.9915 12.80929950261789
CAS500-1                
1 47932U 21022A   26179.64815311  .00006051  00000+0  28235-3 0  9990
2 47932  97.3895  74.6695 0003670 238.2447 121.8430 15.20200873292506
GAOFEN-12 02            
1 48079U 21026A   26179.64950544  .00000352  00000+0  53085-4 0  9995
2 48079  97.9923 177.7833 0004559 179.8113 180.3101 14.80304432283453
PLEIADES NEO 3          
1 48268U 21034A   26179.59860366 -.00000094  00000+0 -53214-5 0  9990
2 48268  97.8939 254.2011 0001367  86.6118 273.5252 14.81671954279344
PLEIADES NEO 4          
1 49070U 21073E   26179.63235704  .00001530  00000+0  20100-3 0  9992
2 49070  97.8938 254.2306 0001363  88.6246 271.5123 14.81673845263060
LANDSAT 9               
1 49260U 21088A   26179.45840888  .00000318  00000+0  80592-4 0  9999
2 49260  98.2278 249.4993 0001251  85.1769 274.9573 14.57104444252644
CSG-2                   
1 51444U 22008A   26179.62937527  .00000122  00000+0  21886-4 0  9999
2 51444  97.8885   3.0613 0001565  86.1662 273.9730 14.82152153238280
GAOFEN-12 03            
1 52912U 22069A   26179.61383131  .00000451  00000+0  66209-4 0  9995
2 52912  97.8275  67.1958 0002380  92.1399 268.0086 14.80050976216303
SWOT                    
1 54754U 22173A   26179.63529788  .00000021  00000+0  15974-4 0  9995
2 54754  77.6102  19.8549 0000295  84.7119 275.4066 14.00170888180750
GAOFEN-12 04            
1 57654U 23123A   26179.63017376  .00000916  00000+0  12863-3 0  9994
2 57654  97.9116  97.4812 0003965  83.4595 276.7068 14.79746777154320
PARS 1                  
1 59065U 24039Q   26179.64265234  .00010547  00000+0  21789-3 0  9996
2 59065  97.4820 160.9248 0011422  78.0736 282.1793 15.45958234130415
RESURS-P 4              
1 59371U 24061A   26179.62703736  .00002873  00000+0  94889-4 0  9998
2 59371  97.2754 127.3269 0002853 113.1132 247.0411 15.32193702125517
LEGION 1                
1 59625U 24081A   26179.50863297  .00003473  00000+0  18041-3 0  9990
2 59625  97.5021 257.2448 0008415 337.4962  22.5900 15.16740266119251
LEGION 2                
1 59626U 24081B   26179.53877291  .00003161  00000+0  16454-3 0  9993
2 59626  97.5022 257.3718 0009951 300.0609  59.9637 15.16719371119269
ALOS-4 (DAICHI-4)       
1 60182U 24123A   26179.58846812  .00001412  00000+0  19594-3 0  9994
2 60182  97.9219 276.6009 0001561  96.3733 263.7657 14.79480966107569
LEGION 3                
1 60452U 24146A   26179.59607891  .00003661  00000+0  20053-3 0  9992
2 60452  45.0022 329.3655 0008706 235.4493 124.5564 15.16034549103757
LEGION 4                
1 60453U 24146B   26179.53326250  .00004087  00000+0  22165-3 0  9993
2 60453  45.0022  61.6118 0012460  10.5518 349.5620 15.16117449102594
SENTINEL-2C             
1 60989U 24157A   26179.50120507  .00000095  00000+0  52828-4 0  9998
2 60989  98.5692 254.1233 0000912  90.5299 269.5989 14.30820681 94609
IONOSFERA-M 1           
1 61735U 24199A   26179.58658482  .00000066  00000+0  48911-4 0  9996
2 61735  98.7159  52.6377 0002163  95.2059 264.9366 14.22756290129326
