OBJECT_NAME,OBJECT_ID,EPOCH,MEAN_MOTION,ECCENTRICITY,INCLINATION,RA_OF_ASC_NODE,ARG_OF_PERICENTER,MEAN_ANOMALY,EPHEMERIS_TYPE,CLASSIFICATION_TYPE,NORAD_CAT_ID,ELEMENT_SET_NO,REV_AT_EPOCH,BSTAR,MEAN_MOTION_DOT,MEAN_MOTION_DDOT
GAOFEN-11 01,2018-063A,2026-06-28T14:59:29.557824,15.55618806,.00021055,97.1294,246.4731,298.9502,61.1541,0,U,43585,999,44212,.28688912E-3,.19596E-3,0
ICESAT-2,2018-070A,2026-06-28T13:09:31.438656,15.28223658,.0006212,92.0088,294.0482,93.7202,266.4758,0,U,43613,999,43419,.31408826E-3,.864E-4,0
HYSIS,2018-096A,2026-06-28T15:32:58.981632,14.78639593,.00018504,97.9841,246.3061,90.2586,269.8837,0,U,43719,999,40911,.14852867E-3,.1036E-4,0
KAZSTSAT,2018-099AB,2026-06-28T15:20:06.333216,14.99905504,.00085121,97.4292,211.0482,38.0581,322.1243,0,U,43783,999,41302,.15856884E-3,.1912E-4,0
SAUDISAT 5A,2018-102A,2026-06-28T14:59:03.288768,15.28162978,.00112831,97.3067,240.9850,94.5264,265.7265,0,U,43831,999,41742,.18786377E-3,.5092E-4,0
SAUDISAT 5B,2018-102C,2026-06-28T15:23:27.260736,15.28413745,.00120096,97.3176,244.0921,96.1621,264.0987,0,U,43833,999,41754,.18199159E-3,.497E-4,0
GAOFEN-10R,2019-066A,2026-06-28T14:58:09.128064,14.83023627,.00071766,98.0502,133.2863,95.5925,264.6106,0,U,44622,999,36407,.13819407E-3,.1069E-4,0
CARTOSAT-3,2019-081A,2026-06-28T14:49:15.172608,15.19220799,.00134154,97.4307,241.3006,111.6215,248.6450,0,U,44804,999,36520,.27284908E-3,.5691E-4,0
GAOFEN-12 01,2019-082A,2026-06-28T15:17:35.553120,14.80467349,.00018447,97.8101,185.7144,58.2392,301.9000,0,U,44819,999,35578,.55636806E-4,.375E-5,0
CSG-1,2019-092A,2026-06-28T12:40:29.582688,14.82162364,.0001459,97.8889,2.9664,90.5065,269.6315,0,U,44873,999,35315,.55318267E-4,.388E-5,0
NEMO-HD,2020-061F,2026-06-28T15:51:16.330752,15.44820059,.00017121,97.1920,241.4985,74.5740,285.5698,0,U,46277,999,32375,.21311489E-3,.9901E-4,0
SENTINEL-6A,2020-086A,2026-06-28T13:30:12.616128,12.80929950,.00078428,66.0410,111.4260,270.0202,89.9915,0,U,46984,999,26178,-.78788592E-4,-.79E-6,0
CAS500-1,2021-022A,2026-06-28T15:33:20.428704,15.20200873,.00036706,97.3895,74.6695,238.2447,121.8430,0,U,47932,999,29250,.28235053E-3,.6051E-4,0
GAOFEN-12 02,2021-026A,2026-06-28T15:35:17.270016,14.80304432,.00045594,97.9923,177.7833,179.8113,180.3101,0,U,48079,999,28345,.5308506E-4,.352E-5,0
PLEIADES NEO 3,2021-034A,2026-06-28T14:21:59.356224,14.81671954,.00013671,97.8939,254.2011,86.6118,273.5252,0,U,48268,999,27934,-.5321361E-5,-.94E-6,0
PLEIADES NEO 4,2021-073E,2026-06-28T15:10:35.648256,14.81673845,.00013637,97.8938,254.2306,88.6246,271.5123,0,U,49070,999,26306,.20099766E-3,.153E-4,0
LANDSAT 9,2021-088A,2026-06-28T11:00:06.527232,14.57104444,.00012519,98.2278,249.4993,85.1769,274.9573,0,U,49260,999,25264,.80592484E-4,.318E-5,0
CSG-2,2022-008A,2026-06-28T15:06:18.023328,14.82152153,.00015655,97.8885,3.0613,86.1662,273.9730,0,U,51444,999,23828,.21885888E-4,.122E-5,0
GAOFEN-12 03,2022-069A,2026-06-28T14:43:55.025184,14.80050976,.00023805,97.8275,67.1958,92.1399,268.0086,0,U,52912,999,21630,.66208875E-4,.451E-5,0
SWOT,2022-173A,2026-06-28T15:14:49.736832,14.00170888,.00002956,77.6102,19.8549,84.7119,275.4066,0,U,54754,999,18075,.15973869E-4,.21E-6,0
GAOFEN-12 04,2023-123A,2026-06-28T15:07:27.012864,14.79746777,.00039656,97.9116,97.4812,83.4595,276.7068,0,U,57654,999,15432,.12863209E-3,.916E-5,0
PARS 1,2024-039Q,2026-06-28T15:25:25.162176,15.45958234,.00114228,97.4820,160.9248,78.0736,282.1793,0,U,59065,999,13041,.21789286E-3,.10547E-3,0
RESURS-P 4,2024-061A,2026-06-28T15:02:56.027904,15.32193702,.00028532,97.2754,127.3269,113.1132,247.0411,0,U,59371,999,12551,.94888541E-4,.2873E-4,0
LEGION 1,2024-081A,2026-06-28T12:12:25.888608,15.16740266,.00084153,97.5021,257.2448,337.4962,22.5900,0,U,59625,999,11925,.18041219E-3,.3473E-4,0
LEGION 2,2024-081B,2026-06-28T12:55:49.979424,15.16719371,.0009951,97.5022,257.3718,300.0609,59.9637,0,U,59626,999,11926,.16454467E-3,.3161E-4,0
ALOS-4 (DAICHI-4),2024-123A,2026-06-28T14:07:23.645568,14.79480966,.00015616,97.9219,276.6009,96.3733,263.7657,0,U,60182,999,10756,.19594278E-3,.1412E-4,0
LEGION 3,2024-146A,2026-06-28T14:18:21.217824,15.16034549,.00087065,45.0022,329.3655,235.4493,124.5564,0,U,60452,999,10375,.20053361E-3,.3661E-4,0
LEGION 4,2024-146B,2026-06-28T12:47:53.880000,15.16117449,.00124605,45.0022,61.6118,10.5518,349.5620,0,U,60453,999,10259,.22165293E-3,.4087E-4,0
SENTINEL-2C,2024-157A,2026-06-28T12:01:44.118048,14.30820681,.00009126,98.5692,254.1233,90.5299,269.5989,0,U,60989,999,9460,.52828282E-4,.95E-6,0
IONOSFERA-M 1,2024-199A,2026-06-28T14:04:40.928448,14.22756290,.00021632,98.7159,52.6377,95.2059,264.9366,0,U,61735,999,12932,.48911267E-4,.66E-6,0
